IRIDIUM 144             
1 43249U 18030A   25362.29772204  .00000049  00000+0  10485-4 0  9999
2 43249  86.3966   1.8395 0002370  90.5545 269.5922 14.34218413405643
IRIDIUM 149             
1 43250U 18030B   25362.02498936  .00000155  00000+0  48317-4 0  9992
2 43250  86.3966   1.9228 0002206  90.9907 269.1542 14.34219362405621
IRIDIUM 157             
1 43251U 18030C   25362.04401823  .00000312  00000+0  10450-3 0  9995
2 43251  86.3965   1.9642 0002080  85.7277 274.4157 14.34216816405603
IRIDIUM 140             
1 43252U 18030D   25362.06304674  .00000174  00000+0  55040-4 0  9995
2 43252  86.3963   1.9690 0002250  90.2357 269.9097 14.34217736405664
IRIDIUM 145             
1 43253U 18030E   25362.05036257  .00000208  00000+0  67351-4 0  9990
2 43253  86.3966   1.9468 0002527  87.8934 272.2551 14.34216749405598
IRIDIUM 146             
1 43254U 18030F   25362.24065155  .00000371  00000+0  12556-3 0  9998
2 43254  86.3965   1.8801 0002382  88.3719 271.7750 14.34219975405638
IRIDIUM 148             
1 43255U 18030G   25362.27869524  .00000376  00000+0  12735-3 0  9998
2 43255  86.3967   1.9048 0002165  86.9152 273.2291 14.34217274405670
IRIDIUM 142             
1 43256U 18030H   25362.24698016  .00000169  00000+0  53188-4 0  9990
2 43256  86.3966   1.8134 0002594  87.4085 272.7407 14.34219627405635
